ONEWEB-0607             
1 54671U 22166AF  25271.06471503 -.00000036  00000+0 -11854-3 0  9995
2 54671  87.9179 296.2757 0001833  87.9176 272.2168 13.21826089136915
ONEWEB-0608             
1 54672U 22166AG  25271.14671664  .00000020  00000+0  16325-4 0  9995
2 54672  87.9177 296.2428 0002020  77.7488 282.3872 13.21825151136936
ONEWEB-0610             
1 54673U 22166AH  25270.97640585 -.00000010  00000+0 -56159-4 0  9994
2 54673  87.9181 296.3147 0002085  74.7025 285.4340 13.21825377136817
ONEWEB-0611             
1 54674U 22166AJ  25271.12147689  .00000026  00000+0  31816-4 0  9998
2 54674  87.9180 296.2816 0001801  98.8966 261.2371 13.21823499136825
ONEWEB-0612             
1 54675U 22166AK  25271.05841413  .00000017  00000+0  91880-5 0  9995
2 54675  87.9181 296.2721 0001881  86.5737 273.5612 13.21825121136806
ONEWEB-0615             
1 54676U 22166AL  25271.03947960  .00000029  00000+0  39110-4 0  9998
2 54676  87.9183 296.3026 0001842  92.1053 268.0292 13.21823746136814
ONEWEB-0655             
1 54677U 22166AM  25271.01268942  .00005523  00000+0  13339-1 0  9999
2 54677  87.9178 296.3126 0001674  82.4558 277.6766 13.21794961136802
ONEWEB-0659             
1 54678U 22166AN  25271.10571930  .00000059  00000+0  11031-3 0  9992
2 54678  87.9181 296.2948 0001994  95.8826 264.2535 13.21824227136905
